[{"OBJECT_NAME":"TECHNOSAT","OBJECT_ID":"2017-042E","EPOCH":"2026-03-09T21:27:07.546176","MEAN_MOTION":15.04288119,"ECCENTRICITY":0.00196291,"INCLINATION":97.4156,"RA_OF_ASC_NODE":230.4429,"ARG_OF_PERICENTER":75.0719,"MEAN_ANOMALY":285.2679,"EPHEMERIS_TYPE":0,"CLASSIFICATION_TYPE":"U","NORAD_CAT_ID":42829,"ELEMENT_SET_NO":999,"REV_AT_EPOCH":47177,"BSTAR":0.00032015047,"MEAN_MOTION_DOT":4.417e-5,"MEAN_MOTION_DDOT":0},{"OBJECT_NAME":"YAOGAN-30 04C","OBJECT_ID":"2017-085C","EPOCH":"2026-03-09T23:40:14.590272","MEAN_MOTION":15.02217282,"ECCENTRICITY":0.00053586,"INCLINATION":34.9965,"RA_OF_ASC_NODE":34.9402,"ARG_OF_PERICENTER":340.2354,"MEAN_ANOMALY":19.8146,"EPHEMERIS_TYPE":0,"CLASSIFICATION_TYPE":"U","NORAD_CAT_ID":43083,"ELEMENT_SET_NO":999,"REV_AT_EPOCH":44782,"BSTAR":0.0003185703,"MEAN_MOTION_DOT":4.258e-5,"MEAN_MOTION_DDOT":0}]
